{"type": "FeatureCollection", "features": [{"type": "Feature", "geometry": {"type": "MultiPolygon", "coordinates": [[[[-83.2885141509434, 45.84431603773585], [-83.292, 45.799], [-82.232, 45.499], [-81.965, 44.144], [-81.902, 43.586], [-82.087, 43.18], [-82.073, 43.025], [-82.196, 42.879], [-82.304, 42.546], [-82.518, 42.326], [-82.69, 42.224], [-82.863, 42.181], [-82.903, 42.063], [-82.863, 41.98], [-82.808, 41.911], [-82.689, 41.863], [-82.459, 41.878], [-81.764, 42.178], [-81.262, 42.421], [-80.316, 42.6], [-79.514, 42.795], [-79.252, 42.966], [-79.373, 43.553], [-78.632, 43.794], [-77.319, 43.789], [-76.955, 43.791], [-76.57379818204492, 44.236373983289226], [-75.88, 43.75], [-75.6, 42.83], [-76.13, 41.24], [-77.3, 39.91], [-79.82, 37.59], [-83.46, 33.22], [-86.03, 31.1], [-86.36562190547637, 30.029206301575396], [-86.462, 30.068], [-87.771, 29.878], [-88.406, 29.863], [-88.432, 29.714], [-88.695, 29.394], [-88.581, 29.249], [-88.619, 29.022], [-88.937, 28.691], [-89.175, 28.63], [-89.399, 28.577], [-89.712, 28.693], [-89.828, 28.916], [-90.102, 28.755], [-90.54, 28.711], [-90.745, 28.711], [-91.083, 28.732], [-91.315, 28.893], [-91.556, 28.983], [-91.655, 29.121], [-91.742, 29.058], [-92.079, 29.114], [-92.164, 29.181], [-92.629, 29.233], [-93.243, 29.441], [-93.588, 29.43], [-93.777, 29.35], [-93.961, 29.348], [-94.266, 29.222], [-94.502, 29.062], [-94.9, 28.808], [-95.134, 28.597], [-95.489, 28.428], [-96.044, 28.182], [-96.147, 28.055], [-96.427, 27.94], [-96.796, 27.579], [-96.8199109079939, 27.525119311398385], [-96.8199109079939, 27.525119311398388], [-97.86, 27.8], [-98.54, 28.4], [-98.66, 29.15], [-98.86, 29.92], [-98.68, 31.66], [-98.74, 32.43], [-98.25, 33.28], [-97.43, 34.61], [-96.68, 38.22], [-96.63, 39.46], [-96.24, 40.69], [-95.99, 41.84], [-98.38, 43.73], [-98.17, 44.85], [-95.46, 45.68], [-91.73, 46.4], [-87.41, 46.13], [-83.99, 45.83], [-83.2885141509434, 45.84431603773585]]]]}, "properties": {"DN": 2, "VALID": "202303311200", "EXPIRE": "202304011200", "ISSUE": "202303310612", "LABEL": "TSTM", "LABEL2": "General Thunderstorms Risk", "stroke": "#55BB55", "fill": "#C1E9C1"}}, {"type": "Feature", "geometry": {"type": "MultiPolygon", "coordinates": [[[[-97.09, 32.62], [-95.4, 37.95], [-95.07, 39.83], [-95.07, 41.5], [-94.94, 42.63], [-94.27, 43.72], [-93.03, 44.34], [-91.18, 44.5], [-85.95, 44.34], [-83.51, 43.17], [-82.89772668810289, 42.07855627009648], [-82.903, 42.063], [-82.863, 41.98], [-82.81654454294433, 41.921719517511974], [-82.51, 40.3], [-81.84, 39.01], [-82.23, 37.32], [-83.78, 35.41], [-85.76, 33.12], [-87.16, 32.17], [-88.47, 31.81], [-92.39, 31.23], [-94.75, 30.46], [-96.31, 30.0], [-97.18, 30.18], [-97.61, 30.47], [-97.74, 31.02], [-97.09, 32.62]]]]}, "properties": {"DN": 3, "VALID": "202303311200", "EXPIRE": "202304011200", "ISSUE": "202303310612", "LABEL": "MRGL", "LABEL2": "Marginal Risk", "stroke": "#005500", "fill": "#66A366"}}, {"type": "Feature", "geometry": {"type": "MultiPolygon", "coordinates": [[[[-95.32, 34.38], [-94.69, 36.53], [-94.38, 39.5], [-94.64, 40.88], [-94.64, 42.21], [-94.15, 43.1], [-93.03, 43.68], [-91.63, 43.82], [-89.97, 43.81], [-87.63, 43.6], [-86.05, 43.33], [-85.39, 42.34], [-84.77, 41.03], [-83.7, 39.44], [-83.65, 38.01], [-83.96, 36.72], [-85.88, 33.99], [-87.34, 33.04], [-90.95, 32.35], [-92.72, 32.05], [-94.42, 31.48], [-96.14, 30.65], [-97.03, 31.05], [-96.46, 32.4], [-95.32, 34.38]]]]}, "properties": {"DN": 4, "VALID": "202303311200", "EXPIRE": "202304011200", "ISSUE": "202303310612", "LABEL": "SLGT", "LABEL2": "Slight Risk", "stroke": "#DDAA00", "fill": "#FFE066"}}, {"type": "Feature", "geometry": {"type": "MultiPolygon", "coordinates": [[[[-92.9, 37.23], [-94.06, 40.95], [-94.06, 42.14], [-93.53, 42.87], [-92.3, 43.45], [-91.0, 43.51], [-88.37, 42.82], [-87.56, 42.29], [-87.01, 41.1], [-86.74, 39.96], [-86.58, 37.8], [-86.6, 35.67], [-86.7, 34.62], [-87.08, 33.9], [-88.0, 33.37], [-91.83, 33.06], [-93.39, 33.22], [-94.13, 33.88], [-93.96, 34.85], [-92.9, 37.23]]]]}, "properties": {"DN": 5, "VALID": "202303311200", "EXPIRE": "202304011200", "ISSUE": "202303310612", "LABEL": "ENH", "LABEL2": "Enhanced Risk", "stroke": "#FF6600", "fill": "#FFA366"}}, {"type": "Feature", "geometry": {"type": "MultiPolygon", "coordinates": [[[[-93.46, 42.28], [-92.47, 42.7], [-91.43, 42.76], [-90.14, 42.56], [-89.71, 42.26], [-89.26, 41.48], [-89.33, 40.67], [-89.79, 40.2], [-91.31, 39.81], [-92.59, 40.01], [-93.33, 40.54], [-93.69, 41.34], [-93.46, 42.28]]], [[[-92.16, 35.54], [-91.31, 36.39], [-90.28, 36.84], [-89.49, 36.95], [-88.73, 36.67], [-88.6, 36.07], [-89.04, 35.31], [-89.69, 34.86], [-90.45, 34.47], [-91.25, 34.16], [-92.12, 34.36], [-92.36, 34.87], [-92.16, 35.54]]]]}, "properties": {"DN": 6, "VALID": "202303311200", "EXPIRE": "202304011200", "ISSUE": "202303310612", "LABEL": "MDT", "LABEL2": "Moderate Risk", "stroke": "#CC0000", "fill": "#E06666"}}]}