{"type": "FeatureCollection", "features": [{"type": "Feature", "geometry": {"type": "MultiPolygon", "coordinates": [[[[-99.54, 43.97], [-97.54, 45.04], [-93.45, 46.67], [-90.47, 46.64], [-86.73, 46.04], [-84.1, 45.49], [-83.21, 44.79], [-83.43, 43.16], [-83.9, 41.06], [-84.86, 39.35], [-86.35, 37.26], [-87.51, 35.62], [-89.57, 34.11], [-91.74, 33.38], [-94.32, 32.67], [-96.71, 32.46], [-98.36, 32.6], [-99.03, 33.07], [-98.34, 35.17], [-97.64, 37.33], [-97.6, 38.57], [-97.82, 39.64], [-98.43, 40.5], [-99.12, 40.69], [-100.16, 40.34], [-101.45, 40.47], [-101.88, 41.25], [-101.08, 42.64], [-99.54, 43.97]]], [[[-111.63, 37.9], [-110.57, 38.95], [-109.53999999999999, 40.55], [-108.48, 41.35], [-107.5, 41.57], [-106.8, 41.51], [-106.07, 41.1], [-105.88, 40.25], [-106.38, 38.89], [-107.29, 37.63], [-108.39, 36.96], [-110.78, 35.68], [-112.24, 34.61], [-115.41, 33.82], [-116.98, 33.64], [-117.69, 34.09], [-117.31, 34.65], [-114.63, 36.24], [-111.63, 37.9]]]]}, "properties": {"DN": 2, "VALID": "202303310100", "EXPIRE": "202303311200", "ISSUE": "202303310045", "LABEL": "TSTM", "LABEL2": "General Thunderstorms Risk", "stroke": "#55BB55", "fill": "#C1E9C1"}}, {"type": "Feature", "geometry": {"type": "MultiPolygon", "coordinates": [[[[-97.51, 35.52], [-95.96, 36.89], [-94.58, 37.47], [-93.68, 37.33], [-93.07, 36.46], [-93.13, 34.86], [-93.59, 34.12], [-94.74, 33.47], [-97.05, 33.18], [-97.88, 33.51], [-97.88, 34.69], [-97.51, 35.52]]], [[[-100.2, 42.1], [-99.27, 42.82], [-97.98, 43.69], [-96.86, 44.25], [-95.67, 44.62], [-94.75, 44.39], [-94.18, 43.84], [-94.59, 43.18], [-95.97, 42.29], [-98.44, 41.06], [-100.02, 40.52], [-100.86, 40.85], [-100.97, 41.33], [-100.2, 42.1]]]]}, "properties": {"DN": 3, "VALID": "202303310100", "EXPIRE": "202303311200", "ISSUE": "202303310045", "LABEL": "MRGL", "LABEL2": "Marginal Risk", "stroke": "#005500", "fill": "#66A366"}}]}