{"type": "FeatureCollection", "features": [{"type": "Feature", "geometry": {"type": "MultiPolygon", "coordinates": [[[[-83.2885141509434, 45.84431603773585], [-83.292, 45.799], [-82.232, 45.499], [-81.965, 44.144], [-81.902, 43.586], [-82.087, 43.18], [-82.073, 43.025], [-82.196, 42.879], [-82.304, 42.546], [-82.518, 42.326], [-82.69, 42.224], [-82.863, 42.181], [-82.903, 42.063], [-82.863, 41.98], [-82.808, 41.911], [-82.689, 41.863], [-82.459, 41.878], [-81.764, 42.178], [-81.262, 42.421], [-80.316, 42.6], [-79.514, 42.795], [-79.252, 42.966], [-79.373, 43.553], [-78.632, 43.794], [-77.319, 43.789], [-76.955, 43.791], [-76.557, 44.256], [-76.17644055944056, 44.48433566433567], [-75.14, 44.15], [-73.78, 43.23], [-72.88, 40.78], [-75.64, 39.04], [-78.73, 37.9], [-83.29, 33.35], [-86.47, 31.89], [-91.93, 29.5], [-93.15405739751816, 29.410869606976835], [-93.243, 29.441], [-93.588, 29.43], [-93.73274532795897, 29.368732136313668], [-93.99, 29.35], [-95.66, 29.3], [-97.3, 29.74], [-97.8, 31.39], [-97.31, 32.86], [-96.45, 34.49], [-97.61, 35.44], [-98.07, 36.73], [-96.89, 38.24], [-96.99, 39.85], [-95.99, 41.84], [-98.38, 43.73], [-98.17, 44.85], [-95.46, 45.68], [-91.73, 46.4], [-87.41, 46.13], [-83.99, 45.83], [-83.2885141509434, 45.84431603773585]]]]}, "properties": {"DN": 2, "VALID": "202303311300", "EXPIRE": "202304011200", "ISSUE": "202303311225", "LABEL": "TSTM", "LABEL2": "General Thunderstorms Risk", "stroke": "#55BB55", "fill": "#C1E9C1"}}, {"type": "Feature", "geometry": {"type": "MultiPolygon", "coordinates": [[[[-82.13004187303017, 42.95729176046826], [-82.196, 42.879], [-82.304, 42.546], [-82.518, 42.326], [-82.69, 42.224], [-82.863, 42.181], [-82.903, 42.063], [-82.863, 41.98], [-82.808, 41.911], [-82.689, 41.863], [-82.459, 41.878], [-81.764, 42.178], [-81.262, 42.421], [-81.03259441043681, 42.46440761155583], [-80.28, 42.12], [-80.36, 40.47], [-80.96, 38.88], [-82.34, 36.03], [-83.4, 34.7], [-83.5, 34.41], [-84.48, 33.31], [-85.19, 33.14], [-85.49, 32.89], [-87.12, 32.15], [-88.54, 31.79], [-92.36, 31.23], [-94.47, 30.5], [-96.31, 29.97], [-97.15, 30.2], [-97.43, 30.54], [-97.63, 31.03], [-96.94, 32.83], [-96.31, 34.51], [-96.14, 37.14], [-96.13, 38.51], [-96.39, 39.05], [-96.52, 39.89], [-95.66, 41.13], [-95.0, 42.63], [-94.25, 43.73], [-93.01, 44.35], [-91.31, 44.5], [-85.95, 44.34], [-83.59, 43.3], [-82.51, 43.13], [-82.13004187303017, 42.95729176046826]]]]}, "properties": {"DN": 3, "VALID": "202303311300", "EXPIRE": "202304011200", "ISSUE": "202303311225", "LABEL": "MRGL", "LABEL2": "Marginal Risk", "stroke": "#005500", "fill": "#66A366"}}, {"type": "Feature", "geometry": {"type": "MultiPolygon", "coordinates": [[[[-96.41, 32.41], [-95.39, 34.32], [-94.77, 36.18], [-94.69, 37.35], [-94.85, 38.99], [-95.62, 39.53], [-95.57, 40.13], [-94.7, 42.23], [-94.11, 43.16], [-93.04, 43.68], [-91.63, 43.82], [-89.97, 43.81], [-87.63, 43.6], [-86.05, 43.33], [-84.57, 42.71], [-83.18, 41.72], [-82.77, 40.97], [-82.47, 40.13], [-82.48, 39.34], [-83.47, 36.95], [-84.65, 35.33], [-84.98, 34.37], [-85.66, 33.71], [-86.9, 33.32], [-87.34, 33.04], [-92.97, 31.96], [-94.48, 31.46], [-96.11, 30.63], [-97.03, 31.05], [-96.41, 32.41]]]]}, "properties": {"DN": 4, "VALID": "202303311300", "EXPIRE": "202304011200", "ISSUE": "202303311225", "LABEL": "SLGT", "LABEL2": "Slight Risk", "stroke": "#DDAA00", "fill": "#FFE066"}}, {"type": "Feature", "geometry": {"type": "MultiPolygon", "coordinates": [[[[-94.05, 42.15], [-93.51, 42.88], [-92.3, 43.45], [-91.0, 43.51], [-88.33, 42.8], [-87.1, 41.96], [-86.45, 41.93], [-85.46, 41.6], [-84.6, 40.37], [-84.41, 39.18], [-84.64, 36.78], [-85.9, 35.17], [-86.01, 34.86], [-86.51, 34.09], [-86.98, 34.0], [-88.05, 33.32], [-91.34, 33.01], [-92.09, 33.1], [-93.93, 32.74], [-94.45, 32.92], [-94.42, 33.44], [-93.37, 34.59], [-92.17, 36.63], [-92.18, 37.31], [-93.24, 39.45], [-93.72, 39.87], [-94.06, 40.95], [-94.05, 42.15]]]]}, "properties": {"DN": 5, "VALID": "202303311300", "EXPIRE": "202304011200", "ISSUE": "202303311225", "LABEL": "ENH", "LABEL2": "Enhanced Risk", "stroke": "#FF6600", "fill": "#FFA366"}}, {"type": "Feature", "geometry": {"type": "MultiPolygon", "coordinates": [[[[-93.45, 42.27], [-92.56, 42.69], [-91.26, 42.65], [-90.3, 42.42], [-89.47, 41.82], [-88.76, 40.8], [-88.78, 40.58], [-87.92, 39.1], [-87.92, 38.21], [-88.16, 37.16], [-87.81, 35.59], [-88.01, 35.03], [-88.38, 34.57], [-89.21, 34.15], [-91.07, 33.74], [-92.24, 33.62], [-92.64, 34.08], [-92.03, 35.51], [-90.59, 37.09], [-90.42, 37.73], [-90.81, 38.7], [-91.43, 39.31], [-93.34, 40.57], [-93.69, 41.36], [-93.45, 42.27]]]]}, "properties": {"DN": 6, "VALID": "202303311300", "EXPIRE": "202304011200", "ISSUE": "202303311225", "LABEL": "MDT", "LABEL2": "Moderate Risk", "stroke": "#CC0000", "fill": "#E06666"}}]}